STARLINK-31571          
1 59362U 24060Q   26068.57853069  .00000108  00000+0  13427-4 0  9991
2 59362  42.9986 260.6673 0000723 274.3865  85.6904 15.27572637110045
FLOCK 4G-1              
1 62666U 25009BK  26068.75951132  .00013534  00000+0  50654-3 0  9995
2 62666  97.4059 151.3158 0003180 323.1401  36.9619 15.27421081 63725
